STARLINK-31138          
1 58806U 24012V   26068.29284590 -.00007888  00000+0 -27713-3 0  9992
2 58806  42.9963 167.6203 0000427  78.5636 281.5264 15.27617781121170
XCUBE-1                 
1 62400U 24247Z   26068.48297321  .00009773  00000+0  36224-3 0  9994
2 62400  44.9938 117.7807 0005235 331.1499  28.9094 15.27910558 67702
